IRIDIUM 171             
1 43929U 19002H   25089.78239654  .00000512  00000+0  17585-3 0  9993
2 43929  86.4051 179.1439 0001953 105.6146 254.5265 14.34218944325401
IRIDIUM 170             
1 43930U 19002J   25089.74385636  .00002088  00000+0  32717-3 0  9997
2 43930  86.6166 178.9295 0001893  94.3114 265.8319 14.72252968334019
IRIDIUM 167             
1 43931U 19002K   25089.77605341  .00000361  00000+0  12172-3 0  9994
2 43931  86.4042 178.9083 0001677  99.1924 260.9462 14.34216769325403
IRIDIUM 181             
1 56726U 23068S   25089.95299976  .00000866  00000+0  25129-3 0  9996
2 56726  86.4488 241.8935 0001858 109.2049 250.9353 14.43292505 98509
IRIDIUM 177             
1 56727U 23068T   25089.72084453  .00002907  00000+0  37900-3 0  9992
2 56727  86.2036 179.3470 0001853 110.4461 249.6959 14.80244891100768
IRIDIUM 174             
1 56728U 23068U   25089.78304051  .00002855  00000+0  37234-3 0  9990
2 56728  86.2041 179.4435 0002760 100.3535 259.7997 14.80223325100779
IRIDIUM 178             
1 56729U 23068V   25089.84515202  .00002993  00000+0  39028-3 0  9996
2 56729  86.6598 210.4994 0002160 105.7073 254.4387 14.80242909100782
IRIDIUM 179             
1 56730U 23068W   25089.90744608  .00003056  00000+0  39895-3 0  9992
2 56730  86.6820 218.1114 0002195  82.1650 277.9821 14.80209604100797
